STARLINK-2606           
1 48386U 21038AK  25037.94197015  .00024367  00000+0  16491-2 0  9990
2 48386  53.0577 323.2094 0001777 124.3626 235.7531 15.06399258207583
STARLINK-2594           
1 48388U 21038AM  25037.96777745  .00021952  00000+0  14882-2 0  9997
2 48388  53.0548 323.0865 0001149  89.2060 270.9061 15.06395156207594
STARLINK-2586           
1 48390U 21038AP  25037.95164577  .00007707  00000+0  53559-3 0  9999
2 48390  53.0552 318.1534 0001322 118.7529 241.3593 15.06409475208875
STARLINK-2607           
1 48391U 21038AQ  25037.94796732  .00009480  00000+0  65432-3 0  9996
2 48391  53.0550 318.1743 0001474 107.4411 252.6740 15.06408932208875
STARLINK-2605           
1 48392U 21038AR  25037.94427889  .00011708  00000+0  80316-3 0  9995
2 48392  53.0556 318.1908 0001639 110.5219 249.5946 15.06419041208875
STARLINK-2574           
1 48395U 21038AU  25037.91486380  .00025993  00000+0  17572-2 0  9990
2 48395  53.0552 318.9478 0001801 114.8756 245.2420 15.06405744208862
STARLINK-2575           
1 48396U 21038AV  25036.93801453  .00029300  00000+0  19765-2 0  9996
2 48396  53.0559 322.7058 0001413  86.0733 274.0417 15.06423047208728
STARLINK-2590           
1 48397U 21038AW  25036.93433303  .00027225  00000+0  18382-2 0  9990
2 48397  53.0577 322.7218 0001678 107.5740 252.5432 15.06427635208722
STARLINK-2588           
1 48398U 21038AX  25037.92585218  .00003910  00000+0  28123-3 0  9994
2 48398  53.0556 318.2615 0002614 122.1616 237.9627 15.06407154208870
STARLINK-2587           
1 48399U 21038AY  25038.25389702  .00010657  00000+0  73350-3 0  9990
2 48399  53.0566 316.7993 0001449 111.3923 248.7221 15.06387638208290
STARLINK-2576           
1 48400U 21038AZ  25037.91847693  .00030532  00000+0  20590-2 0  9994
2 48400  53.0552 318.3029 0001262 120.7394 239.3719 15.06413385207651
STARLINK-2571           
1 48401U 21038BA  25037.95533843  .00000315  00000+0  40083-4 0  9995
2 48401  53.0578 318.1492 0001773  99.3344 260.7845 15.06378575207654
STARLINK-2561           
1 48403U 21038BC  25038.91667824 -.00032602  00000+0 -13072-2 0  9993
2 48403  53.0563 311.6571 0001546  91.1554   2.3807 15.24346233208427
STARLINK-2593           
1 48404U 21038BD  25037.17760362  .00026851  00000+0  18132-2 0  9991
2 48404  53.0548 321.6316 0001844  87.2315 272.8885 15.06429668207547
STARLINK-2570           
1 48405U 21038BE  25036.17871576  .00024563  00000+0  16632-2 0  9992
2 48405  53.0552 326.1163 0001373  92.0740 268.0406 15.06377207207981
STARLINK-2568           
1 48406U 21038BF  25036.97118457  .00027654  00000+0  18670-2 0  9991
2 48406  53.0558 322.5569 0001231 104.3034 255.8092 15.06422507208108
STARLINK-2595           
1 48407U 21038BG  25037.94271547  .00036424  00000+0  16203-2 0  9995
2 48407  53.0444 307.4532 0002712 143.0564 217.0618 15.21169202207805
STARLINK-2592           
1 48408U 21038BH  25037.95901413  .00021623  00000+0  14657-2 0  9995
2 48408  53.0552 318.1229 0000921 102.3795 257.7297 15.06409338207659
STARLINK-2563           
1 48410U 21038BK  25037.92078228  .00002548  00000+0  18991-3 0  9995
2 48410  53.0537 273.2966 0001196  93.1233 266.9893 15.06400765208293
STARLINK-2505           
1 48411U 21038BL  25038.86667957  .00002248  00000+0  16974-3 0  9999
2 48411  53.0551 264.0493 0001537  95.2628 264.8537 15.06407434209083
STARLINK-2581           
1 48412U 21038BM  25037.88996865  .00002117  00000+0  16101-3 0  9991
2 48412  53.0525 268.8653 0001563 101.0782 259.0382 15.06396154208934
STARLINK-2461           
1 48428U 21040A   25037.63234388  .00000725  00000+0  67535-4 0  9990
2 48428  53.0531 164.5863 0001366  99.8787 260.2356 15.06397493208148
STARLINK-2700           
1 48431U 21040D   25037.51484614  .00017912  00000+0  12185-2 0  9995
2 48431  53.0535 130.1185 0001418  86.4792 273.6359 15.06393898207783
STARLINK-2680           
1 48432U 21040E   25038.42487608  .00024416  00000+0  16506-2 0  9991
2 48432  53.0535 121.4252 0001109  96.1782 263.9334 15.06439496208147
STARLINK-2699           
1 48433U 21040F   25038.43729789  .00007937  00000+0  55084-3 0  9996
2 48433  53.0546 126.2536 0001624 107.2319 252.8848 15.06419323208076
STARLINK-2692           
1 48434U 21040G   25038.46817898  .00002988  00000+0  21935-3 0  9998
2 48434  53.0555 131.3475 0001706 102.2582 257.8598 15.06413659207852
STARLINK-2633           
1 48435U 21040H   25038.47455058  .00017513  00000+0  11898-2 0  9992
2 48435  53.0535 140.8142 0001057 109.3855 250.7249 15.06458502208545
STARLINK-2639           
1 48436U 21040J   25038.46396408  .00001986  00000+0  15214-3 0  9999
2 48436  53.0537 155.8552 0001348  95.5062 264.6080 15.06408421207505
STARLINK-2642           
1 48437U 21040K   25038.64734161  .00004301  00000+0  30729-3 0  9994
2 48437  53.0530 165.0348 0001203  99.0099 261.1026 15.06416235208228
STARLINK-2640           
1 48438U 21040L   25038.61881529  .00016072  00000+0  10943-2 0  9996
2 48438  53.0526 155.4308 0001228  85.8967 274.2163 15.06436444208352
STARLINK-2583           
1 48439U 21040M   25038.32389279 -.00014058  00000+0 -92562-3 0  9992
2 48439  53.0576 156.4782 0001676  75.9142 284.2034 15.06442694208315
STARLINK-2682           
1 48440U 21040N   25037.65677621  .00011357  00000+0  77968-3 0  9990
2 48440  53.0533 159.4756 0001363  81.6222 278.4921 15.06420447206938
STARLINK-2702           
1 48441U 21040P   25038.64828218 -.00002106  00000+0 -12253-3 0  9991
2 48441  53.0547 155.0271 0001340  88.8472 271.2670 15.06391332208360
STARLINK-2644           
1 48442U 21040Q   25038.31285192  .00016454  00000+0  11205-2 0  9998
2 48442  53.0530 156.5333 0001257  78.1356 281.9774 15.06413382208316
STARLINK-2663           
1 48443U 21040R   25038.30916662  .00000731  00000+0  67925-4 0  9994
2 48443  53.0532 156.5498 0001153  91.1373 268.9748 15.06407319208319
STARLINK-2645           
1 48444U 21040S   25037.64201639 -.00002022  00000+0 -11689-3 0  9994
2 48444  53.0536 159.5446 0001269  63.1813 296.9305 15.06402290206935
STARLINK-2634           
1 48445U 21040T   25037.57198092  .00001818  00000+0  14095-3 0  9999
2 48445  53.0522 159.8583 0001203  69.0329 291.0789 15.06396532208206
STARLINK-2655           
1 48449U 21040X   25037.56095093  .00003766  00000+0  27175-3 0  9996
2 48449  53.0562 159.9054 0001438 121.1070 239.0060 15.06372167208203
STARLINK-2660           
1 48450U 21040Y   25038.62154054  .00006405  00000+0  44840-3 0  9990
2 48450  53.0534 155.1777 0001233 106.3776 253.7349 15.06405734208362
STARLINK-2703           
1 48452U 21040AA  25038.61508494  .00003078  00000+0  22534-3 0  9991
2 48452  53.0534 155.1477 0001270  91.3369 268.7766 15.06416043208367
STARLINK-2620           
1 48453U 21040AB  25038.47872884  .00006141  00000+0  43081-3 0  9997
2 48453  53.0532 155.7876 0001303  83.6580 276.4557 15.06400845208346
STARLINK-2654           
1 48454U 21040AC  25038.47503568  .00003898  00000+0  28022-3 0  9992
2 48454  53.0523 155.8042 0001951  84.3959 275.7253 15.06429911208340
STARLINK-2497           
1 48455U 21040AD  25038.47134653  .00012684  00000+0  86832-3 0  9994
2 48455  53.0529 155.8218 0001368  92.6734 267.4411 15.06422734207661
STARLINK-2698           
1 48458U 21040AG  25037.61762218 -.00001628  00000+0 -90472-4 0  9990
2 48458  53.0560 164.7415 0000949  99.5549 260.5547 15.06392290207400
STARLINK-2579           
1 48459U 21040AH  25037.61029003  .00008909  00000+0  61649-3 0  9999
2 48459  53.0559 165.0418 0001259  91.7913 268.3221 15.06382495207467
STARLINK-2582           
1 48460U 21040AJ  25038.36177227  .00018508  00000+0  11718-2 0  9993
2 48460  53.0537 160.6535 0000944 199.6832 160.4121 15.09028375207484
STARLINK-2693           
1 48461U 21040AK  25038.91667824  .00367687  00000+0  51915-2 0  9990
2 48461  53.0540 137.6867 0001190  64.8857   1.6346 15.54771071208636
STARLINK-2683           
1 48462U 21040AL  25038.35619483  .00004925  00000+0  34922-3 0  9990
2 48462  53.0550 166.6167 0001546 116.4514 243.6633 15.06408009207509
STARLINK-2686           
1 48464U 21040AN  25037.61162420  .00006934  00000+0  48407-3 0  9999
2 48464  53.0536 169.6802 0000707  22.8162 337.2858 15.06387237208072
STARLINK-2681           
1 48465U 21040AP  25037.62267090  .00002202  00000+0  16669-3 0  9999
2 48465  53.0540 169.6309 0001278  90.8642 269.2493 15.06393975208077
STARLINK-2687           
1 48466U 21040AQ  25038.66945610  .00004736  00000+0  33655-3 0  9994
2 48466  53.0550 164.9331 0001206  75.8835 284.2288 15.06411337208230
STARLINK-2659           
1 48467U 21040AR  25038.62889626 -.00013610  00000+0 -89498-3 0  9994
2 48467  53.0537 165.1129 0001610  68.9013 291.2148 15.06463395208227
STARLINK-2685           
1 48468U 21040AS  25038.34510051  .00002056  00000+0  15687-3 0  9996
2 48468  53.0555 166.3875 0001015  74.0422 286.0679 15.06403195208188
STARLINK-2661           
1 48469U 21040AT  25038.35982965  .00005484  00000+0  38658-3 0  9996
2 48469  53.0556 166.3211 0001408  88.3308 271.7843 15.06420105208185
STARLINK-2675           
1 48470U 21040AU  25038.65475803  .00001637  00000+0  12871-3 0  9994
2 48470  53.0555 165.3505 0001593 108.7111 251.4051 15.06415773208232
STARLINK-2684           
1 48471U 21040AV  25038.34879891 -.00002803  00000+0 -16942-3 0  9997
2 48471  53.0527 166.3706 0000875  73.2552 286.8532 15.06390673208195
STARLINK-2722           
1 48472U 21040AW  25038.66209168  .00003132  00000+0  22902-3 0  9994
2 48472  53.0547 164.9660 0001052  86.0150 274.0959 15.06408707207396
STARLINK-2658           
1 48473U 21040AX  25037.63741207  .00001269  00000+0  10403-3 0  9998
2 48473  53.0536 169.5616 0001234  95.6833 264.4297 15.06408124206797
STARLINK-2697           
1 48474U 21040AY  25038.66577618  .00007712  00000+0  53575-3 0  9992
2 48474  53.0527 164.9499 0001337  64.7270 295.3857 15.06422655208222
